QIANFAN-35              
1 61568U 24185S   26065.64197810  .00001177  00000+0  46761-3 0  9993
2 61568  88.9746  67.0108 0007362  29.3216 330.8391 14.28121335 82156
QIANFAN-36              
1 61569U 24185T   26065.59211454  .00000130  00000+0  16916-3 0  9996
2 61569  88.9718  72.2928 0007075 143.8465 216.3168 13.55613984 79288
QIANFAN-37              
1 62238U 24232B   26065.61064955  .00000089  00000+0  11868-3 0  9992
2 62238  89.0054  32.8580 0001745  97.3755 262.7594 13.51005454110496
QIANFAN-38              
1 62239U 24232C   26065.56122334  .00000095  00000+0  12897-3 0  9993
2 62239  89.0061  32.7845 0013335 320.4373  39.5804 13.51004031110542
QIANFAN-39              
1 62240U 24232D   26065.59320451  .00000530  00000+0  21804-3 0  9990
2 62240  89.0059  27.7168 0016698 155.9282 204.2695 14.25437446113339
QIANFAN-40              
1 62241U 24232E   26065.59413923  .00000095  00000+0  12898-3 0  9997
2 62241  89.0089  32.3892 0012643 329.5177  30.5238 13.51003267110919
QIANFAN-41              
1 62242U 24232F   26065.60240952  .00000102  00000+0  13910-3 0  9995
2 62242  89.0059  32.7304 0012637 316.3458  43.6693 13.51004947110576
QIANFAN-42              
1 62243U 24232G   26065.57432350  .00000498  00000+0  20834-3 0  9998
2 62243  89.0057  27.7786 0015314 161.3300 198.8457 14.24531230113308
QIANFAN-43              
1 62244U 24232H   26065.59825278  .00000100  00000+0  13665-3 0  9990
2 62244  89.0063  32.7999 0014309 321.2457  38.7667 13.51004966 79183
QIANFAN-44              
1 62245U 24232J   26065.58591978  .00000073  00000+0  95089-4 0  9997
2 62245  89.0062  32.6105 0012446 319.0339  40.9876 13.51002844110653
QIANFAN-45              
1 62246U 24232K   26065.62709582  .00000073  00000+0  93911-4 0  9997
2 62246  89.0065  32.7558 0013080 318.1041  41.9109 13.51000497110589
QIANFAN-46              
1 62247U 24232L   26065.57767561  .00000090  00000+0  12075-3 0  9993
2 62247  89.0061  32.8263 0013323 324.2347  35.7911 13.51003530110535
QIANFAN-47              
1 62248U 24232M   26065.58178743  .00000084  00000+0  11136-3 0  9993
2 62248  89.0057  32.7556 0013712 323.0708  36.9498 13.51003385110569
QIANFAN-48              
1 62249U 24232N   26065.61882661  .00000069  00000+0  88438-4 0  9992
2 62249  89.0061  32.7570 0016037 324.7352  35.2737 13.51003481110573
QIANFAN-49              
1 62250U 24232P   26065.60648788  .00000096  00000+0  12978-3 0  9998
2 62250  89.0060  32.7701 0012962 320.3245  39.6957 13.51002703 79163
QIANFAN-50              
1 62251U 24232Q   26065.63116231  .00000093  00000+0  12576-3 0  9996
2 62251  89.0066  32.7803 0014651 320.8976  39.1115 13.51003635 79195
QIANFAN-51              
1 62252U 24232R   26065.61473547  .00000082  00000+0  10925-3 0  9995
2 62252  89.0060  32.7706 0012282 326.2700  33.7668 13.51004418 79187
