[{"OBJECT_NAME":"QIANFAN-35","OBJECT_ID":"2024-185S","EPOCH":"2026-03-06T15:24:26.907840","MEAN_MOTION":14.28121335,"ECCENTRICITY":0.00073624,"INCLINATION":88.9746,"RA_OF_ASC_NODE":67.0108,"ARG_OF_PERICENTER":29.3216,"MEAN_ANOMALY":330.8391,"EPHEMERIS_TYPE":0,"CLASSIFICATION_TYPE":"U","NORAD_CAT_ID":61568,"ELEMENT_SET_NO":999,"REV_AT_EPOCH":8215,"BSTAR":0.00046761053,"MEAN_MOTION_DOT":1.177e-5,"MEAN_MOTION_DDOT":0},{"OBJECT_NAME":"QIANFAN-36","OBJECT_ID":"2024-185T","EPOCH":"2026-03-06T14:12:38.696256","MEAN_MOTION":13.55613984,"ECCENTRICITY":0.00070759,"INCLINATION":88.9718,"RA_OF_ASC_NODE":72.2928,"ARG_OF_PERICENTER":143.8465,"MEAN_ANOMALY":216.3168,"EPHEMERIS_TYPE":0,"CLASSIFICATION_TYPE":"U","NORAD_CAT_ID":61569,"ELEMENT_SET_NO":999,"REV_AT_EPOCH":7928,"BSTAR":0.00016916489,"MEAN_MOTION_DOT":1.3e-6,"MEAN_MOTION_DDOT":0},{"OBJECT_NAME":"QIANFAN-37","OBJECT_ID":"2024-232B","EPOCH":"2026-03-06T14:39:20.121120","MEAN_MOTION":13.51005454,"ECCENTRICITY":0.0001745,"INCLINATION":89.0054,"RA_OF_ASC_NODE":32.858,"ARG_OF_PERICENTER":97.3755,"MEAN_ANOMALY":262.7594,"EPHEMERIS_TYPE":0,"CLASSIFICATION_TYPE":"U","NORAD_CAT_ID":62238,"ELEMENT_SET_NO":999,"REV_AT_EPOCH":11049,"BSTAR":0.00011868354,"MEAN_MOTION_DOT":8.9e-7,"MEAN_MOTION_DDOT":0},{"OBJECT_NAME":"QIANFAN-38","OBJECT_ID":"2024-232C","EPOCH":"2026-03-06T13:28:09.696576","MEAN_MOTION":13.51004031,"ECCENTRICITY":0.0013335,"INCLINATION":89.0061,"RA_OF_ASC_NODE":32.7845,"ARG_OF_PERICENTER":320.4373,"MEAN_ANOMALY":39.5804,"EPHEMERIS_TYPE":0,"CLASSIFICATION_TYPE":"U","NORAD_CAT_ID":62239,"ELEMENT_SET_NO":999,"REV_AT_EPOCH":11054,"BSTAR":0.00012897489,"MEAN_MOTION_DOT":9.5e-7,"MEAN_MOTION_DDOT":0},{"OBJECT_NAME":"QIANFAN-39","OBJECT_ID":"2024-232D","EPOCH":"2026-03-06T14:14:12.869664","MEAN_MOTION":14.25437446,"ECCENTRICITY":0.00166987,"INCLINATION":89.0059,"RA_OF_ASC_NODE":27.7168,"ARG_OF_PERICENTER":155.9282,"MEAN_ANOMALY":204.2695,"EPHEMERIS_TYPE":0,"CLASSIFICATION_TYPE":"U","NORAD_CAT_ID":62240,"ELEMENT_SET_NO":999,"REV_AT_EPOCH":11333,"BSTAR":0.00021804488,"MEAN_MOTION_DOT":5.3e-6,"MEAN_MOTION_DDOT":0},{"OBJECT_NAME":"QIANFAN-40","OBJECT_ID":"2024-232E","EPOCH":"2026-03-06T14:15:33.629472","MEAN_MOTION":13.51003267,"ECCENTRICITY":0.00126434,"INCLINATION":89.0089,"RA_OF_ASC_NODE":32.3892,"ARG_OF_PERICENTER":329.5177,"MEAN_ANOMALY":30.5238,"EPHEMERIS_TYPE":0,"CLASSIFICATION_TYPE":"U","NORAD_CAT_ID":62241,"ELEMENT_SET_NO":999,"REV_AT_EPOCH":11091,"BSTAR":0.00012897528,"MEAN_MOTION_DOT":9.5e-7,"MEAN_MOTION_DDOT":0},{"OBJECT_NAME":"QIANFAN-41","OBJECT_ID":"2024-232F","EPOCH":"2026-03-06T14:27:28.182528","MEAN_MOTION":13.51004947,"ECCENTRICITY":0.00126378,"INCLINATION":89.0059,"RA_OF_ASC_NODE":32.7304,"ARG_OF_PERICENTER":316.3458,"MEAN_ANOMALY":43.6693,"EPHEMERIS_TYPE":0,"CLASSIFICATION_TYPE":"U","NORAD_CAT_ID":62242,"ELEMENT_SET_NO":999,"REV_AT_EPOCH":11057,"BSTAR":0.00013910017,"MEAN_MOTION_DOT":1.02e-6,"MEAN_MOTION_DDOT":0},{"OBJECT_NAME":"QIANFAN-42","OBJECT_ID":"2024-232G","EPOCH":"2026-03-06T13:47:01.550400","MEAN_MOTION":14.2453123,"ECCENTRICITY":0.00153141,"INCLINATION":89.0057,"RA_OF_ASC_NODE":27.7786,"ARG_OF_PERICENTER":161.33,"MEAN_ANOMALY":198.8457,"EPHEMERIS_TYPE":0,"CLASSIFICATION_TYPE":"U","NORAD_CAT_ID":62243,"ELEMENT_SET_NO":999,"REV_AT_EPOCH":11330,"BSTAR":0.00020833724,"MEAN_MOTION_DOT":4.98e-6,"MEAN_MOTION_DDOT":0},{"OBJECT_NAME":"QIANFAN-43","OBJECT_ID":"2024-232H","EPOCH":"2026-03-06T14:21:29.040192","MEAN_MOTION":13.51004966,"ECCENTRICITY":0.00143092,"INCLINATION":89.0063,"RA_OF_ASC_NODE":32.7999,"ARG_OF_PERICENTER":321.2457,"MEAN_ANOMALY":38.7667,"EPHEMERIS_TYPE":0,"CLASSIFICATION_TYPE":"U","NORAD_CAT_ID":62244,"ELEMENT_SET_NO":999,"REV_AT_EPOCH":7918,"BSTAR":0.00013664625,"MEAN_MOTION_DOT":1.0e-6,"MEAN_MOTION_DDOT":0},{"OBJECT_NAME":"QIANFAN-44","OBJECT_ID":"2024-232J","EPOCH":"2026-03-06T14:03:43.468992","MEAN_MOTION":13.51002844,"ECCENTRICITY":0.00124469,"INCLINATION":89.0062,"RA_OF_ASC_NODE":32.6105,"ARG_OF_PERICENTER":319.0339,"MEAN_ANOMALY":40.9876,"EPHEMERIS_TYPE":0,"CLASSIFICATION_TYPE":"U","NORAD_CAT_ID":62245,"ELEMENT_SET_NO":999,"REV_AT_EPOCH":11065,"BSTAR":9.5088597e-5,"MEAN_MOTION_DOT":7.3e-7,"MEAN_MOTION_DDOT":0},{"OBJECT_NAME":"QIANFAN-45","OBJECT_ID":"2024-232K","EPOCH":"2026-03-06T15:03:01.078848","MEAN_MOTION":13.51000497,"ECCENTRICITY":0.00130806,"INCLINATION":89.0065,"RA_OF_ASC_NODE":32.7558,"ARG_OF_PERICENTER":318.1041,"MEAN_ANOMALY":41.9109,"EPHEMERIS_TYPE":0,"CLASSIFICATION_TYPE":"U","NORAD_CAT_ID":62246,"ELEMENT_SET_NO":999,"REV_AT_EPOCH":11058,"BSTAR":9.3910747e-5,"MEAN_MOTION_DOT":7.3e-7,"MEAN_MOTION_DDOT":0},{"OBJECT_NAME":"QIANFAN-46","OBJECT_ID":"2024-232L","EPOCH":"2026-03-06T13:51:51.172704","MEAN_MOTION":13.5100353,"ECCENTRICITY":0.00133233,"INCLINATION":89.0061,"RA_OF_ASC_NODE":32.8263,"ARG_OF_PERICENTER":324.2347,"MEAN_ANOMALY":35.7911,"EPHEMERIS_TYPE":0,"CLASSIFICATION_TYPE":"U","NORAD_CAT_ID":62247,"ELEMENT_SET_NO":999,"REV_AT_EPOCH":11053,"BSTAR":0.00012075457,"MEAN_MOTION_DOT":9.0e-7,"MEAN_MOTION_DDOT":0},{"OBJECT_NAME":"QIANFAN-47","OBJECT_ID":"2024-232M","EPOCH":"2026-03-06T13:57:46.433952","MEAN_MOTION":13.51003385,"ECCENTRICITY":0.00137127,"INCLINATION":89.0057,"RA_OF_ASC_NODE":32.7556,"ARG_OF_PERICENTER":323.0708,"MEAN_ANOMALY":36.9498,"EPHEMERIS_TYPE":0,"CLASSIFICATION_TYPE":"U","NORAD_CAT_ID":62248,"ELEMENT_SET_NO":999,"REV_AT_EPOCH":11056,"BSTAR":0.0001113601,"MEAN_MOTION_DOT":8.4e-7,"MEAN_MOTION_DDOT":0},{"OBJECT_NAME":"QIANFAN-48","OBJECT_ID":"2024-232N","EPOCH":"2026-03-06T14:51:06.619104","MEAN_MOTION":13.51003481,"ECCENTRICITY":0.00160379,"INCLINATION":89.0061,"RA_OF_ASC_NODE":32.757,"ARG_OF_PERICENTER":324.7352,"MEAN_ANOMALY":35.2737,"EPHEMERIS_TYPE":0,"CLASSIFICATION_TYPE":"U","NORAD_CAT_ID":62249,"ELEMENT_SET_NO":999,"REV_AT_EPOCH":11057,"BSTAR":8.8438225e-5,"MEAN_MOTION_DOT":6.9e-7,"MEAN_MOTION_DDOT":0},{"OBJECT_NAME":"QIANFAN-49","OBJECT_ID":"2024-232P","EPOCH":"2026-03-06T14:33:20.552832","MEAN_MOTION":13.51002703,"ECCENTRICITY":0.00129622,"INCLINATION":89.006,"RA_OF_ASC_NODE":32.7701,"ARG_OF_PERICENTER":320.3245,"MEAN_ANOMALY":39.6957,"EPHEMERIS_TYPE":0,"CLASSIFICATION_TYPE":"U","NORAD_CAT_ID":62250,"ELEMENT_SET_NO":999,"REV_AT_EPOCH":7916,"BSTAR":0.00012977938,"MEAN_MOTION_DOT":9.6e-7,"MEAN_MOTION_DDOT":0},{"OBJECT_NAME":"QIANFAN-50","OBJECT_ID":"2024-232Q","EPOCH":"2026-03-06T15:08:52.423584","MEAN_MOTION":13.51003635,"ECCENTRICITY":0.00146515,"INCLINATION":89.0066,"RA_OF_ASC_NODE":32.7803,"ARG_OF_PERICENTER":320.8976,"MEAN_ANOMALY":39.1115,"EPHEMERIS_TYPE":0,"CLASSIFICATION_TYPE":"U","NORAD_CAT_ID":62251,"ELEMENT_SET_NO":999,"REV_AT_EPOCH":7919,"BSTAR":0.00012575998,"MEAN_MOTION_DOT":9.3e-7,"MEAN_MOTION_DDOT":0},{"OBJECT_NAME":"QIANFAN-51","OBJECT_ID":"2024-232R","EPOCH":"2026-03-06T14:45:13.144608","MEAN_MOTION":13.51004418,"ECCENTRICITY":0.00122826,"INCLINATION":89.006,"RA_OF_ASC_NODE":32.7706,"ARG_OF_PERICENTER":326.27,"MEAN_ANOMALY":33.7668,"EPHEMERIS_TYPE":0,"CLASSIFICATION_TYPE":"U","NORAD_CAT_ID":62252,"ELEMENT_SET_NO":999,"REV_AT_EPOCH":7918,"BSTAR":0.00010924954,"MEAN_MOTION_DOT":8.2e-7,"MEAN_MOTION_DDOT":0}]
